NORAD_CAT_ID,OBJECT_NAME,OBJECT_TYPE,EPOCH,MEAN_MOTION,ECCENTRICITY,INCLINATION,RA_OF_ASC_NODE,ARG_OF_PERICENTER,MEAN_ANOMALY,BSTAR,MEAN_MOTION_DOT,MEAN_MOTION_DDOT,TLE_LINE0,TLE_LINE1,TLE_LINE2,SEMIMAJOR_AXIS,PERIOD,APOGEE,PERIGEE,DECAYED
51725.0,STARLINK-3522,PAYLOAD,2022-05-18 20:00:01,15.08811413,0.0001818,53.2161,92.9151,53.108,82.5487,0.0027466,0.00043661,0.0,0 STARLINK-3522,1 51725U 22016M   22138.83334491  .00043661  00000-0  27466-2 0  9999,2 51725  53.2161  92.9151 0001818  53.1080  82.5487 15.08811413 14586,6917.968000000003,95.439,541.09,538.575,0.0
51725.0,STARLINK-3522,PAYLOAD,2022-05-18 22:00:00,15.08835149,0.0001835,53.2162,92.5415,53.3897,175.1535,0.00036483,5.522e-05,0.0,0 STARLINK-3522,1 51725U 22016M   22138.91667824  .00005522  00000-0  36483-3 0  9991,2 51725  53.2162  92.5415 0001835  53.3897 175.1535 15.08835149  1304,6917.895,95.438,541.03,538.491,0.0
51725.0,STARLINK-3522,PAYLOAD,2022-05-19 06:00:00,15.08813964,0.0001983,53.2163,91.0469,46.2871,193.8537,0.00092871,0.00014513,0.0,0 STARLINK-3522,1 51725U 22016M   22139.25001157  .00014513  00000-0  92871-3 0  9993,2 51725  53.2163  91.0469 0001983  46.2871 193.8537 15.08813964 14646,6917.96,95.439,541.197,538.453,0.0
51725.0,STARLINK-3522,PAYLOAD,2022-05-19 14:00:01,15.08833833,0.0001807,53.2164,89.5491,48.1491,203.6269,-0.00020727,-3.585e-05,0.0,0 STARLINK-3522,1 51725U 22016M   22139.58335648 -.00003585  00000-0 -20727-3 0  9994,2 51725  53.2164  89.5491 0001807  48.1491 203.6269 15.08833833  1306,6917.899,95.438,541.014,538.514,0.0
51725.0,STARLINK-3522,PAYLOAD,2022-05-19 22:00:00,15.08851483,0.0001776999999999,53.2167,88.0527,52.6412,210.6543,0.0006468,0.00010024,0.0,0 STARLINK-3522,1 51725U 22016M   22139.91667824  .00010024  00000-0  64680-3 0  9995,2 51725  53.2167  88.0527 0001777  52.6412 210.6543 15.08851483  1306,6917.845,95.437,540.94,538.481,0.0
51725.0,STARLINK-3522,PAYLOAD,2022-05-20 14:00:01,15.08849218,0.0001771,53.2167,85.06,49.5617,236.9614,-0.0021325,-0.00034076,0.0,0 STARLINK-3522,1 51725U 22016M   22140.58334491 -.00034076  00000-0 -21325-2 0  9994,2 51725  53.2167  85.0600 0001771  49.5617 236.9614 15.08849218 14847,6917.852,95.437,540.942,538.492,0.0
51725.0,STARLINK-3522,PAYLOAD,2022-05-20 22:00:00,15.08848849,0.000175,53.2168,83.5637,54.8117,243.2964,0.0001431,1.991e-05,0.0,0 STARLINK-3522,1 51725U 22016M   22140.91667824  .00001991  00000-0  14310-3 0  9995,2 51725  53.2168  83.5637 0001750  54.8117 243.2964 15.08848849  1307,6917.853,95.437,540.929,538.508,0.0
51725.0,STARLINK-3522,PAYLOAD,2022-05-21 06:00:00,15.08819181,0.0001871,53.2167,82.0688,47.0879,262.6266,0.0018332,0.00028991,0.0,0 STARLINK-3522,1 51725U 22016M   22141.25001157  .00028991  00000-0  18332-2 0  9990,2 51725  53.2167  82.0688 0001871  47.0879 262.6266 15.08819181 14940,6917.944,95.439,541.1030000000002,538.515,0.0
51725.0,STARLINK-3522,PAYLOAD,2022-05-21 14:00:01,15.08844391,0.0001615,53.2166,80.5708,49.2009,272.17,-0.0012772,-0.0002056,0.0,0 STARLINK-3522,1 51725U 22016M   22141.58335648 -.00020560  00000-0 -12772-2 0  9999,2 51725  53.2166  80.5708 0001615  49.2009 272.1700 15.08844391  1306,6917.8669999999975,95.437,540.849,538.615,0.0
51725.0,STARLINK-3522,PAYLOAD,2022-05-21 22:00:00,15.08847902,0.0001568,53.2167,79.0747,51.6943,281.198,0.00025994,3.852e-05,0.0,0 STARLINK-3522,1 51725U 22016M   22141.91667824  .00003852  00000-0  25994-3 0  9994,2 51725  53.2167  79.0747 0001568  51.6943 281.1980 15.08847902  1305,6917.856,95.437,540.806,538.637,0.0
51725.0,STARLINK-3522,PAYLOAD,2022-05-22 06:00:00,15.088427,0.000174,53.2163,77.5797,45.9207,298.5774,0.00068834,0.00010685,0.0,0 STARLINK-3522,1 51725U 22016M   22142.25001157  .00010685  00000-0  68834-3 0  9995,2 51725  53.2163  77.5797 0001740  45.9207 298.5774 15.08842700 15095,6917.871999999999,95.437,540.941,538.533,0.0
51725.0,STARLINK-3522,PAYLOAD,2022-05-22 14:00:01,15.08836243,0.000155,53.2161,76.0816,51.0916,305.0168,-0.0020762,-0.00033176,0.0,0 STARLINK-3522,1 51725U 22016M   22142.58334491 -.00033176  00000-0 -20762-2 0  9990,2 51725  53.2161  76.0816 0001550  51.0916 305.0168 15.08836243  1308,6917.892,95.438,540.8290000000002,538.685,0.0
51725.0,STARLINK-3522,PAYLOAD,2022-05-22 22:00:01,15.08837642,0.0001512,53.2163,74.5855,52.5005,315.2452,-3.7224e-05,-8.8e-06,0.0,0 STARLINK-3522,1 51725U 22016M   22142.91668981 -.00000880  00000-0 -37224-4 0  9990,2 51725  53.2163  74.5855 0001512  52.5005 315.2452 15.08837642 15194,6917.888000000001,95.438,540.799,538.707,0.0
51725.0,STARLINK-3522,PAYLOAD,2022-05-23 14:00:01,15.08824362,0.0001626999999999,53.2157,71.5923,54.9966,335.8694,-0.00024939,-4.253e-05,0.0,0 STARLINK-3522,1 51725U 22016M   22143.58334491 -.00004253  00000-0 -24939-3 0  9996,2 51725  53.2157  71.5923 0001627  54.9966 335.8694 15.08824362  1308,6917.928000000001,95.439,540.919,538.668,0.0
51725.0,STARLINK-3522,PAYLOAD,2022-05-23 22:00:01,15.08828878,0.0001742,53.2159,70.0965,58.3337,344.1677,-0.0006921,-0.00011283,0.0,0 STARLINK-3522,1 51725U 22016M   22143.91668981 -.00011283  00000-0 -69210-3 0  9999,2 51725  53.2159  70.0965 0001742  58.3337 344.1677 15.08828878  1308,6917.9140000000025,95.438,540.984,538.5740000000002,0.0
51725.0,STARLINK-3522,PAYLOAD,2022-05-24 06:00:02,15.08808658,0.0001838,53.2156,68.6012,51.951,2.1288,0.0029646,0.00047169,0.0,0 STARLINK-3522,1 51725U 22016M   22144.25002315  .00047169  00000-0  29646-2 0  9998,2 51725  53.2156  68.6012 0001838  51.9510   2.1288 15.08808658 15408,6917.976,95.44,541.113,538.57,0.0
51725.0,STARLINK-3522,PAYLOAD,2022-05-24 12:07:16,15.08836222,0.0001675999999999,53.2181,67.4568,53.172,306.9426,-7.475300000000001e-05,-1.477e-05,0.0,0 STARLINK-3522,1 51725U 22016M   22144.50505732 -.00001477  00000-0 -74753-4 0  9992,2 51725  53.2181  67.4568 0001676  53.1720 306.9426 15.08836222 14301,6917.892,95.438,540.9159999999998,538.597,0.0
51725.0,STARLINK-3522,PAYLOAD,2022-05-24 22:00:00,15.08839254,0.0001733,53.2158,65.6073,57.2643,19.894,-0.00093182,-0.00015087,0.0,0 STARLINK-3522,1 51725U 22016M   22144.91667824 -.00015087  00000-0 -93182-3 0  9996,2 51725  53.2158  65.6073 0001733  57.2643  19.8940 15.08839254 15501,6917.8830000000025,95.438,540.947,538.549,0.0
51725.0,STARLINK-3522,PAYLOAD,2022-05-25 14:00:01,15.08820959,0.0001602,53.216,62.6137,55.4047,44.9505,0.001642,0.00025927,0.0,0 STARLINK-3522,1 51725U 22016M   22145.58334491  .00025927  00000-0  16420-2 0  9992,2 51725  53.2160  62.6137 0001602  55.4047  44.9505 15.08820959 15604,6917.939,95.439,540.9119999999998,538.695,0.0
51725.0,STARLINK-3522,PAYLOAD,2022-05-25 22:00:00,15.0885856,0.0001702,53.2162,61.1181,54.4472,57.4882,-0.0011395,-0.00018387,0.0,0 STARLINK-3522,1 51725U 22016M   22145.91667824 -.00018387  00000-0 -11395-2 0  9998,2 51725  53.2162  61.1181 0001702  54.4472  57.4882 15.08858560  1309,6917.824000000001,95.436,540.866,538.511,0.0
51725.0,STARLINK-3522,PAYLOAD,2022-05-26 14:00:01,15.08831564,0.000152,53.2166,58.1245,51.6604,83.4889,0.0003536,5.343e-05,0.0,0 STARLINK-3522,1 51725U 22016M   22146.58334491  .00005343  00000-0  35360-3 0  9998,2 51725  53.2166  58.1245 0001520  51.6604  83.4889 15.08831564 15759,6917.906,95.438,540.823,538.72,0.0
51725.0,STARLINK-3522,PAYLOAD,2022-05-26 22:00:00,15.08840043,0.0001607,53.217,56.629,50.9677,95.7687,-0.00082311,-0.00013364,0.0,0 STARLINK-3522,1 51725U 22016M   22146.91667824 -.00013364  00000-0 -82311-3 0  9996,2 51725  53.2170  56.6290 0001607  50.9677  95.7687 15.08840043  1305,6917.88,95.438,540.857,538.634,0.0
51725.0,STARLINK-3522,PAYLOAD,2022-05-27 14:00:01,15.08798428,0.0001625,53.2172,53.6355,54.1483,115.7651,0.0031065,0.00049443,0.0,0 STARLINK-3522,1 51725U 22016M   22147.58334491  .00049443  00000-0  31065-2 0  9995,2 51725  53.2172  53.6355 0001625  54.1483 115.7651 15.08798428  1300,6918.007,95.44,540.997,538.748,0.0
51725.0,STARLINK-3522,PAYLOAD,2022-05-27 16:00:00,15.08804579,0.0001658,53.2174,53.2612,55.9461,206.8563,0.0030828,0.00049069,0.0,0 STARLINK-3522,1 51725U 22016M   22147.66667824  .00049069  00000-0  30828-2 0  9993,2 51725  53.2174  53.2612 0001658  55.9461 206.8563 15.08804579 15916,6917.989000000001,95.44,541.001,538.707,0.0
51725.0,STARLINK-3522,PAYLOAD,2022-05-27 21:11:57,15.08833755,0.0001675999999999,53.2186,52.2897,54.4025,305.7123,-2.4687e-05,-6.81e-06,0.0,0 STARLINK-3522,1 51725U 22016M   22147.88330710 -.00000681  00000-0 -24687-4 0  9995,2 51725  53.2186  52.2897 0001676  54.4025 305.7123 15.08833755 14810,6917.899,95.438,540.924,538.605,0.0
51725.0,STARLINK-3522,PAYLOAD,2022-05-28 06:00:02,15.08839538,0.0001818,53.2173,50.6446,49.4659,143.6721,0.0020671999999999,0.00032765,0.0,0 STARLINK-3522,1 51725U 22016M   22148.25002315  .00032765  00000-0  20672-2 0  9998,2 51725  53.2173  50.6446 0001818  49.4659 143.6721 15.08839538 16004,6917.882,95.438,541.004,538.489,0.0
51725.0,STARLINK-3522,PAYLOAD,2022-05-28 14:00:01,15.08855489,0.0001695,53.2176,49.1467,56.8401,147.8524,0.00070518,0.00010957,0.0,0 STARLINK-3522,1 51725U 22016M   22148.58334491  .00010957  00000-0  70518-3 0  9991,2 51725  53.2176  49.1467 0001695  56.8401 147.8524 15.08855489  1300,6917.833000000001,95.437,540.871,538.525,0.0
51725.0,STARLINK-3522,PAYLOAD,2022-05-28 21:02:43,15.08849851,0.0001631,53.2178,47.8285,49.9676,310.1459,0.00011898,1.607e-05,0.0,0 STARLINK-3522,1 51725U 22016M   22148.87688991  .00001607  00000-0  11898-3 0  9998,2 51725  53.2178  47.8285 0001631  49.9676 310.1459 15.08849851 14966,6917.85,95.437,540.844,538.587,0.0
51725.0,STARLINK-3522,PAYLOAD,2022-05-29 06:00:02,15.08843871,0.0001802,53.2173,46.1557,51.4041,176.5782,-0.001058,-0.00017089,0.0,0 STARLINK-3522,1 51725U 22016M   22149.25002315 -.00017089  00000-0 -10580-2 0  9990,2 51725  53.2173  46.1557 0001802  51.4041 176.5782 15.08843871 16151,6917.869000000002,95.437,540.98,538.487,0.0
